{
    "links": {
        "self": "http://www.neowsapp.com/rest/v1/neo/3748493?api_key=iIulBulltgU6a56xZRHN4H3l9WmuAYTsLGpBGhQ2"
    },
    "id": "3748493",
    "neo_reference_id": "3748493",
    "name": "(2016 FA14)",
    "designation": "2016 FA14",
    "nasa_jpl_url": "http://ssd.jpl.nasa.gov/sbdb.cgi?sstr=3748493",
    "absolute_magnitude_h": 27.1,
    "estimated_diameter": {
        "kilometers": {
            "estimated_diameter_min": 0.0101054342,
            "estimated_diameter_max": 0.0225964377
        },
        "meters": {
            "estimated_diameter_min": 10.1054341542,
            "estimated_diameter_max": 22.5964377109
        },
        "miles": {
            "estimated_diameter_min": 0.0062792237,
            "estimated_diameter_max": 0.0140407711
        },
        "feet": {
            "estimated_diameter_min": 33.1543125905,
            "estimated_diameter_max": 74.1352966996
        }
    },
    "is_potentially_hazardous_asteroid": false,
    "close_approach_data": [
        {
            "close_approach_date": "1937-04-21",
            "close_approach_date_full": "1937-Apr-21 23:28",
            "epoch_date_close_approach": -1031790720000,
            "relative_velocity": {
                "kilometers_per_second": "27.9443041614",
                "kilometers_per_hour": "100599.4949810753",
                "miles_per_hour": "62508.6139786576"
            },
            "miss_distance": {
                "astronomical": "0.4295619026",
                "lunar": "167.0995801114",
                "kilometers": "64261545.662107462",
                "miles": "39930272.8830764956"
            },
            "orbiting_body": "Earth"
        },
        {
            "close_approach_date": "2016-03-28",
            "close_approach_date_full": "2016-Mar-28 06:32",
            "epoch_date_close_approach": 1459146720000,
            "relative_velocity": {
                "kilometers_per_second": "15.2385447401",
                "kilometers_per_hour": "54858.7610643773",
                "miles_per_hour": "34087.1007291404"
            },
            "miss_distance": {
                "astronomical": "0.0042416828",
                "lunar": "1.6500146092",
                "kilometers": "634546.712095636",
                "miles": "394289.0434703368"
            },
            "orbiting_body": "Earth"
        },
        {
            "close_approach_date": "2016-03-28",
            "close_approach_date_full": "2016-Mar-28 11:08",
            "epoch_date_close_approach": 1459163280000,
            "relative_velocity": {
                "kilometers_per_second": "15.9454008186",
                "kilometers_per_hour": "57403.4429469542",
                "miles_per_hour": "35668.2670911228"
            },
            "miss_distance": {
                "astronomical": "0.0057557881",
                "lunar": "2.2390015709",
                "kilometers": "861053.639931347",
                "miles": "535033.9220007086"
            },
            "orbiting_body": "Moon"
        },
        {
            "close_approach_date": "2020-10-28",
            "close_approach_date_full": "2020-Oct-28 17:51",
            "epoch_date_close_approach": 1603907460000,
            "relative_velocity": {
                "kilometers_per_second": "19.2978018572",
                "kilometers_per_hour": "69472.08668592",
                "miles_per_hour": "43167.2529743707"
            },
            "miss_distance": {
                "astronomical": "0.1455814127",
                "lunar": "56.6311695403",
                "kilometers": "21778669.251510949",
                "miles": "13532637.5561471362"
            },
            "orbiting_body": "Earth"
        }
    ],
    "orbital_data": {
        "orbit_id": "7",
        "orbit_determination_date": "2018-05-10 06:25:53",
        "first_observation_date": "2016-03-31",
        "last_observation_date": "2016-04-05",
        "data_arc_in_days": 5,
        "observations_used": 29,
        "orbit_uncertainty": "7",
        "minimum_orbit_intersection": ".00239704",
        "jupiter_tisserand_invariant": "3.838",
        "epoch_osculation": "2459000.5",
        "eccentricity": ".5864600536521591",
        "semi_major_axis": "1.801922989822524",
        "inclination": "4.263800562312902",
        "ascending_node_longitude": "189.641503005825",
        "orbital_period": "883.4922948259821",
        "perihelion_distance": ".7451671365341475",
        "perihelion_argument": "286.4202613753505",
        "aphelion_distance": "2.8586788431109",
        "perihelion_time": "2459197.843488590018",
        "mean_anomaly": "279.5876904547314",
        "mean_motion": ".4074738422828099",
        "equinox": "J2000",
        "orbit_class": {
            "orbit_class_type": "APO",
            "orbit_class_description": "Near-Earth asteroid orbits which cross the Earth’s orbit similar to that of 1862 Apollo",
            "orbit_class_range": "a (semi-major axis) > 1.0 AU; q (perihelion) < 1.017 AU"
        }
    },
    "is_sentry_object": false
}